#dP2021  2 10  0  0  0.00000000      96 __u+U ITR00 EXT  IAC
## 2144 259200.00000000   900.00000000 59255 0.0000000000000
+  116   C06C07C08C09C10C11C12C13C14C16C19C20C21C22C23C24C25
+        C26C27C28C29C30C32C33C34C35C36C37C38C39C40C41C42C43
+        C44C45C46E01E02E03E04E05E07E08E09E11E12E13E14E15E18
+        E19E21E24E25E26E27E30E31E33E36G01G02G03G04G05G06G07
+        G08G09G10G11G12G13G14G15G16G17G18G19G20G21G22G23G24
+        G25G26G27G28G29G30G31G32J01J02J03R01R02R03R04R05R07
+        R08R11R12R13R14R15R16R17R18R19R20R21R22R24  0  0  0
++         8 12 10  8 11 10 10 10 15 10  9  9 10  8  9 10 10
++         9  8 10  8  8  9  9  9  9  8  9 10  9 10  8 10  9
++         8  9  8 10  9 10  8  9  9  9  9  9  9  8  9  8  8
++         8  8  8 10  7  8  9  8 10  8  9  8  8  8  9  8  9
++         7  8  7  9  8  9  8  8  9  9  6  7  9  8  8  8  9
++         8  8  8  9  8  8 10  7 12  8 10  9  9  9 10  9  8
++         8  8  9  9  8  9  8  8  8  8  7  8 10  9  0  0  0
%c M  cc GPS ccc cccc cccc cccc cccc ccccc ccccc ccccc ccccc
%c cc cc ccc ccc cccc cccc cccc cccc ccccc ccccc ccccc ccccc
%f  0.0000000  0.000000000  0.00000000000  0.000000000000000
%f  0.0000000  0.000000000  0.00000000000  0.000000000000000
%i    0    0    0    0      0      0      0      0         0
%i    0    0    0    0      0      0      0      0         0
/* IAC                                ULTRA-RAPID PREDICTION
/* S/V CLOCKS ARE ALIGNED TO GNSS TIME                      
/* G:C1WC2W R:C1PC2P E:C1XC5X C:C2IC6I J:C1CC2S             
/* PCV:IGS14_2134 OL/AL:FES2004  NONE     YN ORB:CoN CLK:CoN
*  2021 02 10  3  0  0.00000000
PC06 -18478.564551  23302.366462  30136.045784     78.197432
PC07 -17765.720251  38326.992941   4258.042548   -311.401977
PC08  -5168.124489  25638.064825 -32840.220218   -916.804906
PC09  -2613.039331  24649.342543  34346.426088    743.965376
PC10  -8105.698864  40845.814395  -7734.339408    -89.057280
PC11  10292.516997  14771.573436 -21243.250990   -932.475077
PC12 -10630.840536  13682.542415 -21837.976235    787.573541
PC13   7371.905960  34196.611411 -23224.766062    135.000866
PC14   1321.084132  21188.960541  18163.976016    100.412566
PC16 -17422.805327  23122.350950  30669.510422   -690.119831
PC19  -9274.540436 -14003.577307 -22257.856519    722.351445
PC20   5660.082884 -24384.475215 -12292.416800   -914.137448
PC21 -17952.331616  20657.642837  -5481.439467   -831.152414
PC22 -19294.932331   4796.805936 -19588.341302   -874.143524
PC23  18754.618393   6002.884148 -19771.612307   -876.495444
PC24   3234.533966  25163.389040  11572.749315   -757.357117
PC25  16544.767703  21518.968528  -6430.017019   -928.029265
PC26  -9950.499927  14370.254008  21735.658285    950.682940
PC27  20005.436926 -10080.074475  16639.860891    480.800803
PC28  27852.586346   1625.763963    536.997276   -111.347788
PC29 -19819.840232 -11622.036029  15831.122851    350.343757
PC30    426.977304 -15874.948433  22945.858822    442.808656
PC32  17820.989272 -20749.090578   5538.052822   -892.499734
PC33   9312.291006  14066.298869  22238.428992   -959.398451
PC34    381.439820  15941.468264 -22905.947326   -743.475720
PC35 -27871.688647   -857.643738   -243.969806   -425.130230
PC36 -15909.745692 -22100.501155   6134.418845   -758.807994
PC37  10795.923737 -13419.574672 -21949.541819   -863.929066
PC38  -4487.609070  28580.612046 -30597.876649    129.138220
PC39 -15235.465509  24292.039247  30871.996071     28.311474
PC40 -15243.360611  38992.877259  -5610.818333    130.021234
PC41  19249.710496  -4523.016516  19743.023773   -930.428030
PC42  -6133.155435  24574.873517  11768.091032   -857.331270
PC43  19399.297208  12005.222772 -16091.666879   -590.997990
PC44 -19778.631614  10756.700678 -16467.153870     30.906907
PC45 -18674.804912  -5974.422013  19865.342945    358.156187
PC46  -4028.206944 -25393.335742 -10900.477044    412.386369
PE01  11009.131139 -22112.824915 -16321.181603  -1042.931764
PE02 -10955.235311  22173.322246  16241.991195    197.308953
PE03 -21450.439916  18840.990076   7831.700508   -396.938023
PE04   3812.494884 -19874.243047 -21600.787517   -706.670040
PE05 -26751.463629   6729.001820 -10735.576245   -305.812064
PE07  16399.012740   9192.192783  22865.014280   -498.880458
PE08  -3455.581745  19702.814518  21819.917101   6049.233759
PE09 -16522.640019  -8859.723606 -22907.953903   5770.463145
PE11 -23607.377062 -17111.190117   5053.829238   6343.412758
PE12  -6898.695182 -19691.501629  20995.886847   5363.711108
PE13  23481.396551  17184.188353  -5442.964419    411.806995
PE14  20666.946351  10945.748941 -19144.330607  -1324.661099
PE15   7079.301017  19617.612926 -20993.290490    830.057129
PE18 -26707.855207   1608.142059   5651.686653  -1448.019232
PE19  22858.675101 -17906.658711  -5759.959840    200.000169
PE21  16459.993380  -2486.968531 -24479.965826   -647.618682
PE24 -12209.596360 -19903.396761  18196.795112   -735.532779
PE25 -16469.618279   2249.467067  24494.285609   -526.121739
PE26  25854.091124   4142.270216  13816.256133   2165.785601
PE27  12566.764277  19224.764466 -18662.364960     33.072318
PE30    668.695396  29557.766749  -1166.300596   3193.460816
PE31  -1315.447412 -29515.173280   1917.256573   -478.149516
PE33  13483.139273 -10502.528468  24180.881143   -465.570410
PE36 -26042.189126  -4667.111653 -13255.392299    442.675471
PG01  21793.667299  13686.025125   7011.752772    764.257046
PG02  -9911.387269 -20446.626775  14393.059944   -575.259258
PG03  13880.467082   6325.586710  21672.300969    -78.953211
PG04  22567.183070   3431.921067  13626.729466   -179.146924
PG05  -5003.042765 -22817.351567 -12620.828583    -33.289267
PG06   3116.460895 -16056.257954  20980.344643     -3.240388
PG07  19591.617818    776.754523 -17801.087271     53.285962
PG08  17487.848901   7548.262031 -18625.807675     -9.738824
PG09  25581.075983  -6506.556491   2993.893284   -321.436934
PG10 -11662.125829  21382.756113 -10155.232653    -58.176539
PG11  22973.268814  11304.616051  -6779.601965    -28.911415
PG12 -11358.476425 -11541.715241  20836.625021      1.012826
PG13  -6944.026296 -13894.423071 -21693.872793     95.482015
PG14  13479.646513 -19853.985037 -11385.456511     95.672516
PG15 -18699.247522  -6473.394479 -18229.359155   -170.454156
PG16   1089.447775  23609.330886 -11866.387691   -277.836281
PG17  18330.994922 -14062.194473  13526.051236    391.533628
PG18 -17548.685739   2259.458299 -19830.653810    346.529808
PG19  11648.127512 -14956.790839  18281.356068    -40.519914
PG20 -14770.842040  11154.901688 -19006.178763    524.767693
PG21  21112.571762  16480.900368    -12.729377     94.281310
PG22  11894.356975  15371.891608  18370.829346   -682.247489
PG23 -15108.238348  12203.907165 -18122.148684    118.231879
PG24 -21709.731498 -15558.953084   1630.185155      2.520005
PG25 -15668.955082   4447.700570  20667.916426     77.397359
PG26  -4036.189268  26098.691373   -605.364411     42.667137
PG27   4223.331156  14326.278016 -22114.379809    -73.304945
PG28  12500.684786 -21986.925148  -7850.550999    617.730572
PG29 -26043.667958   4208.599254   3222.429036   -292.103621
PG30  11520.822597 -10713.620609 -21358.692517   -382.401134
PG31  -1387.021306  17704.847422  19522.577039    -99.161357
PG32 -16631.108272  15588.759487  13585.250155     18.175798
PJ01 -27892.310030  31612.243790   2299.276438   -340.107119
PJ02 -26806.933172  24585.936148  26210.971847      1.686997
PJ03 -32247.655577  17236.772306 -16377.627196     -0.600718
PR01 -10304.861994  -5010.390297 -22790.382216     74.764331
PR02 -19299.642266  12514.256773 -10920.539847    466.414059
PR03 -14703.911571  19791.239548   6473.150688     30.585352
PR04  -2035.822825  15672.551339  20045.055925     73.438350
PR05  11835.627938   2858.855890  22427.267326     66.248678
PR07  14466.854571 -19840.531815  -6960.384081    -42.397334
PR08   1996.705110 -15741.665540 -19926.487246    -57.301324
PR11  -7446.129224 -24393.012643   -203.070465      3.539552
PR12 -12584.251812 -14925.708055  16454.364308    203.752971
PR13 -10543.992511   3073.670284  23001.391634    -50.520390
PR14  -2177.348432  19779.827828  15969.710188     60.830342
PR15   7230.418136  24457.590805   -149.467972    105.483063
PR16  13079.990610  13672.668327 -17061.762038    -11.136214
PR17  -9368.949177   8114.198082 -22285.429336    398.752097
PR18   8864.122699  11880.962303 -20755.197430     66.127594
PR19  21653.703661  10160.108777  -8858.414064   -131.423838
PR20  23013.131422   1422.173189  10975.386154   -433.044629
PR21   8141.180329  -8471.288034  22643.835546   -186.596579
PR22  -9814.179871 -11908.627157  20269.890233    -97.076688
PR24 -22772.658839   -532.038122 -11466.421036     30.962207
EOF
